{"type": "FeatureCollection", "features": [{"type": "Feature", "geometry": {"type": "Point", "coordinates": [83.31243599703375, 17.718963718164456]}, "properties": {"row": 24, "col": 0, "velocity_mm_yr": -2.5078372955322266, "velocity_std_mm_yr": 0.38605087995529175, "temporal_coherence": 0.9145026803016663, "cumulative_disp_mm": -9.479037284851074}}, {"type": "Feature", "geometry": {"type": "Point", "coordinates": [83.31318988920394, 17.718954836827987]}, "properties": {"row": 24, "col": 1, "velocity_mm_yr": -5.185223579406738, "velocity_std_mm_yr": 0.3357670307159424, "temporal_coherence": 0.9475834965705872, "cumulative_disp_mm": -18.195234298706055}}, {"type": "Feature", "geometry": {"type": "Point", "coordinates": [83.3139437809341, 17.718945952602365]}, "properties": {"row": 24, "col": 2, "velocity_mm_yr": -5.9726243019104, "velocity_std_mm_yr": 0.3331219553947449, "temporal_coherence": 0.936948835849762, "cumulative_disp_mm": -24.891855239868164}}, {"type": "Feature", "geometry": {"type": "Point", "coordinates": [83.31242673178805, 17.718241198276157]}, "properties": {"row": 25, "col": 0, "velocity_mm_yr": -2.5974082946777344, "velocity_std_mm_yr": 0.25169259309768677, "temporal_coherence": 0.9365284442901611, "cumulative_disp_mm": -10.12614631652832}}, {"type": "Feature", "geometry": {"type": "Point", "coordinates": [83.3131806209442, 17.71823231732512]}, "properties": {"row": 25, "col": 1, "velocity_mm_yr": 0.5911585688591003, "velocity_std_mm_yr": 0.2338697463274002, "temporal_coherence": 0.9140118360519409, "cumulative_disp_mm": -4.423859119415283}}, {"type": "Feature", "geometry": {"type": "Point", "coordinates": [83.3139345096603, 17.71822343348508]}, "properties": {"row": 25, "col": 2, "velocity_mm_yr": 2.714128017425537, "velocity_std_mm_yr": 0.32610663771629333, "temporal_coherence": 0.9173613786697388, "cumulative_disp_mm": 3.465648889541626}}, {"type": "Feature", "geometry": {"type": "Point", "coordinates": [83.31468839793624, 17.718214546756023]}, "properties": {"row": 25, "col": 3, "velocity_mm_yr": 0.04980793967843056, "velocity_std_mm_yr": 0.41551703214645386, "temporal_coherence": 0.9410176873207092, "cumulative_disp_mm": -4.336060523986816}}, {"type": "Feature", "geometry": {"type": "Point", "coordinates": [83.31544228577185, 17.71820565713797]}, "properties": {"row": 25, "col": 4, "velocity_mm_yr": 0.9794304966926575, "velocity_std_mm_yr": 0.5007909536361694, "temporal_coherence": 0.9474011063575745, "cumulative_disp_mm": 2.3014297485351562}}, {"type": "Feature", "geometry": {"type": "Point", "coordinates": [83.31619617316699, 17.718196764630925]}, "properties": {"row": 25, "col": 5, "velocity_mm_yr": -2.125955104827881, "velocity_std_mm_yr": 0.4540214538574219, "temporal_coherence": 0.9337579011917114, "cumulative_disp_mm": -6.186424732208252}}, {"type": "Feature", "geometry": {"type": "Point", "coordinates": [83.31695006012153, 17.718187869234896]}, "properties": {"row": 25, "col": 6, "velocity_mm_yr": -8.286053657531738, "velocity_std_mm_yr": 0.381558895111084, "temporal_coherence": 0.9185957908630371, "cumulative_disp_mm": -23.883544921875}}, {"type": "Feature", "geometry": {"type": "Point", "coordinates": [83.3177039466353, 17.71817897094989]}, "properties": {"row": 25, "col": 7, "velocity_mm_yr": 0.39433377981185913, "velocity_std_mm_yr": 0.33417320251464844, "temporal_coherence": 0.925972580909729, "cumulative_disp_mm": 3.9995455741882324}}, {"type": "Feature", "geometry": {"type": "Point", "coordinates": [83.31845783270819, 17.718170069775915]}, "properties": {"row": 25, "col": 8, "velocity_mm_yr": -1.3784785270690918, "velocity_std_mm_yr": 0.3653757870197296, "temporal_coherence": 0.8327420949935913, "cumulative_disp_mm": -10.372509956359863}}, {"type": "Feature", "geometry": {"type": "Point", "coordinates": [83.31241746698225, 17.717518678330087]}, "properties": {"row": 26, "col": 0, "velocity_mm_yr": 1.3111672401428223, "velocity_std_mm_yr": 0.25320789217948914, "temporal_coherence": 0.9370671510696411, "cumulative_disp_mm": 4.838133335113525}}, {"type": "Feature", "geometry": {"type": "Point", "coordinates": [83.31317135312449, 17.717509797764492]}, "properties": {"row": 26, "col": 1, "velocity_mm_yr": -1.0100572109222412, "velocity_std_mm_yr": 0.24585950374603271, "temporal_coherence": 0.9048874378204346, "cumulative_disp_mm": -7.407988548278809}}, {"type": "Feature", "geometry": {"type": "Point", "coordinates": [83.31392523882668, 17.717500914310012]}, "properties": {"row": 26, "col": 2, "velocity_mm_yr": -0.3404937982559204, "velocity_std_mm_yr": 0.28155186772346497, "temporal_coherence": 0.9131870865821838, "cumulative_disp_mm": -4.275467395782471}}, {"type": "Feature", "geometry": {"type": "Point", "coordinates": [83.31467912408871, 17.71749202796665]}, "properties": {"row": 26, "col": 3, "velocity_mm_yr": -0.6405511498451233, "velocity_std_mm_yr": 0.2768813967704773, "temporal_coherence": 0.9502087831497192, "cumulative_disp_mm": -6.392135143280029}}, {"type": "Feature", "geometry": {"type": "Point", "coordinates": [83.31543300891045, 17.717483138734412]}, "properties": {"row": 26, "col": 4, "velocity_mm_yr": -0.38026466965675354, "velocity_std_mm_yr": 0.26650455594062805, "temporal_coherence": 0.9412413239479065, "cumulative_disp_mm": -4.713472843170166}}, {"type": "Feature", "geometry": {"type": "Point", "coordinates": [83.3161868932917, 17.71747424661331]}, "properties": {"row": 26, "col": 5, "velocity_mm_yr": 0.5585378408432007, "velocity_std_mm_yr": 0.23887473344802856, "temporal_coherence": 0.9337865114212036, "cumulative_disp_mm": -4.081181526184082}}, {"type": "Feature", "geometry": {"type": "Point", "coordinates": [83.31694077723238, 17.717465351603344]}, "properties": {"row": 26, "col": 6, "velocity_mm_yr": -4.549856185913086, "velocity_std_mm_yr": 0.2556130886077881, "temporal_coherence": 0.9192813634872437, "cumulative_disp_mm": -16.4580078125}}, {"type": "Feature", "geometry": {"type": "Point", "coordinates": [83.31769466073229, 17.71745645370454]}, "properties": {"row": 26, "col": 7, "velocity_mm_yr": -1.4371503591537476, "velocity_std_mm_yr": 0.24467779695987701, "temporal_coherence": 0.8959994316101074, "cumulative_disp_mm": -3.390683889389038}}, {"type": "Feature", "geometry": {"type": "Point", "coordinates": [83.31844854379132, 17.71744755291688]}, "properties": {"row": 26, "col": 8, "velocity_mm_yr": 6.292605876922607, "velocity_std_mm_yr": 0.3828790485858917, "temporal_coherence": 0.864163339138031, "cumulative_disp_mm": 12.441927909851074}}, {"type": "Feature", "geometry": {"type": "Point", "coordinates": [83.31920242640933, 17.717438649240385]}, "properties": {"row": 26, "col": 9, "velocity_mm_yr": 4.265975475311279, "velocity_std_mm_yr": 0.3280869424343109, "temporal_coherence": 0.9099032878875732, "cumulative_disp_mm": 12.05603313446045}}, {"type": "Feature", "geometry": {"type": "Point", "coordinates": [83.31995630858616, 17.717429742675066]}, "properties": {"row": 26, "col": 10, "velocity_mm_yr": 1.2210873365402222, "velocity_std_mm_yr": 0.30409687757492065, "temporal_coherence": 0.9193464517593384, "cumulative_disp_mm": 1.4745492935180664}}, {"type": "Feature", "geometry": {"type": "Point", "coordinates": [83.32071019032168, 17.717420833220924]}, "properties": {"row": 26, "col": 11, "velocity_mm_yr": -1.0788278579711914, "velocity_std_mm_yr": 0.3995360732078552, "temporal_coherence": 0.9172102212905884, "cumulative_disp_mm": -7.513928413391113}}, {"type": "Feature", "geometry": {"type": "Point", "coordinates": [83.32146407161574, 17.71741192087796]}, "properties": {"row": 26, "col": 12, "velocity_mm_yr": -4.174773693084717, "velocity_std_mm_yr": 0.3786850869655609, "temporal_coherence": 0.8564616441726685, "cumulative_disp_mm": -15.769115447998047}}, {"type": "Feature", "geometry": {"type": "Point", "coordinates": [83.3222179524682, 17.717403005646194]}, "properties": {"row": 26, "col": 13, "velocity_mm_yr": -11.742341995239258, "velocity_std_mm_yr": 0.4910162389278412, "temporal_coherence": 0.8331202864646912, "cumulative_disp_mm": -41.491058349609375}}, {"type": "Feature", "geometry": {"type": "Point", "coordinates": [83.31240820261634, 17.71679615832624]}, "properties": {"row": 27, "col": 0, "velocity_mm_yr": -3.010505199432373, "velocity_std_mm_yr": 0.24619466066360474, "temporal_coherence": 0.9457355737686157, "cumulative_disp_mm": -9.429912567138672}}, {"type": "Feature", "geometry": {"type": "Point", "coordinates": [83.31316208574479, 17.716787278146093]}, "properties": {"row": 27, "col": 1, "velocity_mm_yr": 0.902789831161499, "velocity_std_mm_yr": 0.23614569008350372, "temporal_coherence": 0.9398368000984192, "cumulative_disp_mm": -0.8751697540283203}}, {"type": "Feature", "geometry": {"type": "Point", "coordinates": [83.31391596843325, 17.716778395077174]}, "properties": {"row": 27, "col": 2, "velocity_mm_yr": -1.100945234298706, "velocity_std_mm_yr": 0.25648704171180725, "temporal_coherence": 0.933929979801178, "cumulative_disp_mm": -6.34980583190918}}, {"type": "Feature", "geometry": {"type": "Point", "coordinates": [83.31466985068153, 17.7167695091195]}, "properties": {"row": 27, "col": 3, "velocity_mm_yr": -1.3188872337341309, "velocity_std_mm_yr": 0.26196610927581787, "temporal_coherence": 0.9494686722755432, "cumulative_disp_mm": -7.351181507110596}}, {"type": "Feature", "geometry": {"type": "Point", "coordinates": [83.31542373248949, 17.716760620273078]}, "properties": {"row": 27, "col": 4, "velocity_mm_yr": -1.7933204174041748, "velocity_std_mm_yr": 0.2761300206184387, "temporal_coherence": 0.9474018216133118, "cumulative_disp_mm": -7.589599609375}}, {"type": "Feature", "geometry": {"type": "Point", "coordinates": [83.31617761385702, 17.716751728537915]}, "properties": {"row": 27, "col": 5, "velocity_mm_yr": -3.382563829421997, "velocity_std_mm_yr": 0.28430235385894775, "temporal_coherence": 0.9368152618408203, "cumulative_disp_mm": -10.295970916748047}}, {"type": "Feature", "geometry": {"type": "Point", "coordinates": [83.31693149478396, 17.716742833914015]}, "properties": {"row": 27, "col": 6, "velocity_mm_yr": -3.918826103210449, "velocity_std_mm_yr": 0.24707487225532532, "temporal_coherence": 0.9173970222473145, "cumulative_disp_mm": -15.323712348937988}}, {"type": "Feature", "geometry": {"type": "Point", "coordinates": [83.31768537527014, 17.716733936401393]}, "properties": {"row": 27, "col": 7, "velocity_mm_yr": -0.23429399728775024, "velocity_std_mm_yr": 0.3388809859752655, "temporal_coherence": 0.9121045470237732, "cumulative_disp_mm": 3.3805840015411377}}, {"type": "Feature", "geometry": {"type": "Point", "coordinates": [83.31843925531547, 17.71672503600005]}, "properties": {"row": 27, "col": 8, "velocity_mm_yr": 3.1016833782196045, "velocity_std_mm_yr": 0.28855276107788086, "temporal_coherence": 0.8991798758506775, "cumulative_disp_mm": 2.796888589859009}}, {"type": "Feature", "geometry": {"type": "Point", "coordinates": [83.31919313491977, 17.716716132709998]}, "properties": {"row": 27, "col": 9, "velocity_mm_yr": 1.5223448276519775, "velocity_std_mm_yr": 0.2765311598777771, "temporal_coherence": 0.9069964289665222, "cumulative_disp_mm": 1.3893141746520996}}, {"type": "Feature", "geometry": {"type": "Point", "coordinates": [83.31994701408291, 17.71670722653125]}, "properties": {"row": 27, "col": 10, "velocity_mm_yr": -0.4297330975532532, "velocity_std_mm_yr": 0.2539753019809723, "temporal_coherence": 0.8837960958480835, "cumulative_disp_mm": -3.505082845687866}}, {"type": "Feature", "geometry": {"type": "Point", "coordinates": [83.32070089280474, 17.71669831746379]}, "properties": {"row": 27, "col": 11, "velocity_mm_yr": -2.4579169750213623, "velocity_std_mm_yr": 0.2867448925971985, "temporal_coherence": 0.8885084390640259, "cumulative_disp_mm": -9.778570175170898}}, {"type": "Feature", "geometry": {"type": "Point", "coordinates": [83.32145477108511, 17.716689405507644]}, "properties": {"row": 27, "col": 12, "velocity_mm_yr": -3.193080425262451, "velocity_std_mm_yr": 0.3191653788089752, "temporal_coherence": 0.8767572045326233, "cumulative_disp_mm": -11.874500274658203}}, {"type": "Feature", "geometry": {"type": "Point", "coordinates": [83.3222086489239, 17.71668049066282]}, "properties": {"row": 27, "col": 13, "velocity_mm_yr": -1.9548765420913696, "velocity_std_mm_yr": 0.34142759442329407, "temporal_coherence": 0.8601577281951904, "cumulative_disp_mm": -7.6401801109313965}}, {"type": "Feature", "geometry": {"type": "Point", "coordinates": [83.32296252632095, 17.716671572929325]}, "properties": {"row": 27, "col": 14, "velocity_mm_yr": -5.714031219482422, "velocity_std_mm_yr": 0.41681694984436035, "temporal_coherence": 0.8442526459693909, "cumulative_disp_mm": -16.86319923400879}}, {"type": "Feature", "geometry": {"type": "Point", "coordinates": [83.32371640327612, 17.71666265230716]}, "properties": {"row": 27, "col": 15, "velocity_mm_yr": -4.942442417144775, "velocity_std_mm_yr": 0.38832953572273254, "temporal_coherence": 0.8334730863571167, "cumulative_disp_mm": -14.023266792297363}}, {"type": "Feature", "geometry": {"type": "Point", "coordinates": [83.32447027978927, 17.716653728796338]}, "properties": {"row": 27, "col": 16, "velocity_mm_yr": -5.755186080932617, "velocity_std_mm_yr": 0.38588380813598633, "temporal_coherence": 0.7898937463760376, "cumulative_disp_mm": -21.48143196105957}}, {"type": "Feature", "geometry": {"type": "Point", "coordinates": [83.32522415586025, 17.716644802396857]}, "properties": {"row": 27, "col": 17, "velocity_mm_yr": 2.031913995742798, "velocity_std_mm_yr": 0.45566582679748535, "temporal_coherence": 0.8397084474563599, "cumulative_disp_mm": -1.729660987854004}}, {"type": "Feature", "geometry": {"type": "Point", "coordinates": [83.3123989386903, 17.71607363826464]}, "properties": {"row": 28, "col": 0, "velocity_mm_yr": -2.5853638648986816, "velocity_std_mm_yr": 0.2421041578054428, "temporal_coherence": 0.9404940605163574, "cumulative_disp_mm": -10.128700256347656}}, {"type": "Feature", "geometry": {"type": "Point", "coordinates": [83.31315281880514, 17.716064758469923]}, "properties": {"row": 28, "col": 1, "velocity_mm_yr": -0.6707727313041687, "velocity_std_mm_yr": 0.24428808689117432, "temporal_coherence": 0.9307616949081421, "cumulative_disp_mm": -2.956153392791748}}, {"type": "Feature", "geometry": {"type": "Point", "coordinates": [83.31390669847995, 17.716055875786562]}, "properties": {"row": 28, "col": 2, "velocity_mm_yr": -1.8823177814483643, "velocity_std_mm_yr": 0.2756444215774536, "temporal_coherence": 0.9435959458351135, "cumulative_disp_mm": -8.725086212158203}}, {"type": "Feature", "geometry": {"type": "Point", "coordinates": [83.31466057771463, 17.716046990214572]}, "properties": {"row": 28, "col": 3, "velocity_mm_yr": -0.5184794664382935, "velocity_std_mm_yr": 0.2442183941602707, "temporal_coherence": 0.9539080858230591, "cumulative_disp_mm": -6.686038017272949}}, {"type": "Feature", "geometry": {"type": "Point", "coordinates": [83.315414456509, 17.716038101753963]}, "properties": {"row": 28, "col": 4, "velocity_mm_yr": -2.7654287815093994, "velocity_std_mm_yr": 0.23211094737052917, "temporal_coherence": 0.9452846646308899, "cumulative_disp_mm": -10.151289939880371}}, {"type": "Feature", "geometry": {"type": "Point", "coordinates": [83.31616833486292, 17.716029210404734]}, "properties": {"row": 28, "col": 5, "velocity_mm_yr": -2.742344856262207, "velocity_std_mm_yr": 0.2418656200170517, "temporal_coherence": 0.9391445517539978, "cumulative_disp_mm": -10.657139778137207}}, {"type": "Feature", "geometry": {"type": "Point", "coordinates": [83.31692221277628, 17.716020316166897]}, "properties": {"row": 28, "col": 6, "velocity_mm_yr": -2.5731093883514404, "velocity_std_mm_yr": 0.2605229616165161, "temporal_coherence": 0.9164639711380005, "cumulative_disp_mm": -14.075756072998047}}, {"type": "Feature", "geometry": {"type": "Point", "coordinates": [83.3176760902489, 17.716011419040463]}, "properties": {"row": 28, "col": 7, "velocity_mm_yr": 0.6248601078987122, "velocity_std_mm_yr": 0.2622893452644348, "temporal_coherence": 0.9335842728614807, "cumulative_disp_mm": -1.691803216934204}}, {"type": "Feature", "geometry": {"type": "Point", "coordinates": [83.31842996728065, 17.716002519025434]}, "properties": {"row": 28, "col": 8, "velocity_mm_yr": 1.5318052768707275, "velocity_std_mm_yr": 0.2615604102611542, "temporal_coherence": 0.9110462069511414, "cumulative_disp_mm": -0.710235595703125}}, {"type": "Feature", "geometry": {"type": "Point", "coordinates": [83.31918384387139, 17.715993616121818]}, "properties": {"row": 28, "col": 9, "velocity_mm_yr": 2.2528741359710693, "velocity_std_mm_yr": 0.2889905869960785, "temporal_coherence": 0.8964307308197021, "cumulative_disp_mm": 5.479589462280273}}, {"type": "Feature", "geometry": {"type": "Point", "coordinates": [83.31993772002096, 17.715984710329625]}, "properties": {"row": 28, "col": 10, "velocity_mm_yr": -5.267399311065674, "velocity_std_mm_yr": 0.24568630754947662, "temporal_coherence": 0.8579998016357422, "cumulative_disp_mm": -16.163175582885742}}, {"type": "Feature", "geometry": {"type": "Point", "coordinates": [83.32069159572924, 17.715975801648856]}, "properties": {"row": 28, "col": 11, "velocity_mm_yr": 1.7670563459396362, "velocity_std_mm_yr": 0.31825143098831177, "temporal_coherence": 0.8485219478607178, "cumulative_disp_mm": 3.276376962661743}}, {"type": "Feature", "geometry": {"type": "Point", "coordinates": [83.32144547099608, 17.715966890079528]}, "properties": {"row": 28, "col": 12, "velocity_mm_yr": 0.4029961824417114, "velocity_std_mm_yr": 0.4143732786178589, "temporal_coherence": 0.7970533967018127, "cumulative_disp_mm": -3.069967269897461}}, {"type": "Feature", "geometry": {"type": "Point", "coordinates": [83.32219934582135, 17.715957975621645]}, "properties": {"row": 28, "col": 13, "velocity_mm_yr": 2.9780595302581787, "velocity_std_mm_yr": 0.40124043822288513, "temporal_coherence": 0.7571572661399841, "cumulative_disp_mm": 0.24082207679748535}}, {"type": "Feature", "geometry": {"type": "Point", "coordinates": [83.32295322020488, 17.715949058275207]}, "properties": {"row": 28, "col": 14, "velocity_mm_yr": 8.467187881469727, "velocity_std_mm_yr": 0.3797515630722046, "temporal_coherence": 0.7997108101844788, "cumulative_disp_mm": 16.864608764648438}}, {"type": "Feature", "geometry": {"type": "Point", "coordinates": [83.32370709414654, 17.715940138040235]}, "properties": {"row": 28, "col": 15, "velocity_mm_yr": 1.383845329284668, "velocity_std_mm_yr": 0.47179704904556274, "temporal_coherence": 0.8230088353157043, "cumulative_disp_mm": 4.729773998260498}}, {"type": "Feature", "geometry": {"type": "Point", "coordinates": [83.32446096764617, 17.715931214916726]}, "properties": {"row": 28, "col": 16, "velocity_mm_yr": -2.865931510925293, "velocity_std_mm_yr": 0.3713107705116272, "temporal_coherence": 0.8366612792015076, "cumulative_disp_mm": -4.821911811828613}}, {"type": "Feature", "geometry": {"type": "Point", "coordinates": [83.32521484070367, 17.715922288904693]}, "properties": {"row": 28, "col": 17, "velocity_mm_yr": 0.5371022820472717, "velocity_std_mm_yr": 0.3935200273990631, "temporal_coherence": 0.8464435935020447, "cumulative_disp_mm": 1.2015080451965332}}, {"type": "Feature", "geometry": {"type": "Point", "coordinates": [83.32596871331886, 17.715913360004134]}, "properties": {"row": 28, "col": 18, "velocity_mm_yr": -1.219488501548767, "velocity_std_mm_yr": 0.5200068354606628, "temporal_coherence": 0.8813143968582153, "cumulative_disp_mm": -4.549468040466309}}, {"type": "Feature", "geometry": {"type": "Point", "coordinates": [83.31238967520413, 17.715351118145264]}, "properties": {"row": 29, "col": 0, "velocity_mm_yr": 1.2126702070236206, "velocity_std_mm_yr": 0.2371138483285904, "temporal_coherence": 0.9302060008049011, "cumulative_disp_mm": -1.2740623950958252}}, {"type": "Feature", "geometry": {"type": "Point", "coordinates": [83.31314355230548, 17.71534223873598]}, "properties": {"row": 29, "col": 1, "velocity_mm_yr": 1.354974627494812, "velocity_std_mm_yr": 0.2235720008611679, "temporal_coherence": 0.9345327615737915, "cumulative_disp_mm": 0.01044762134552002}}, {"type": "Feature", "geometry": {"type": "Point", "coordinates": [83.31389742896683, 17.71533335643818]}, "properties": {"row": 29, "col": 2, "velocity_mm_yr": -0.5528658628463745, "velocity_std_mm_yr": 0.24934831261634827, "temporal_coherence": 0.952415406703949, "cumulative_disp_mm": -3.692384719848633}}, {"type": "Feature", "geometry": {"type": "Point", "coordinates": [83.31465130518802, 17.715324471251872]}, "properties": {"row": 29, "col": 3, "velocity_mm_yr": -1.3750680685043335, "velocity_std_mm_yr": 0.22917945683002472, "temporal_coherence": 0.9517744779586792, "cumulative_disp_mm": -8.355192184448242}}, {"type": "Feature", "geometry": {"type": "Point", "coordinates": [83.31540518096894, 17.715315583177066]}, "properties": {"row": 29, "col": 4, "velocity_mm_yr": -1.3351707458496094, "velocity_std_mm_yr": 0.22610785067081451, "temporal_coherence": 0.9511755108833313, "cumulative_disp_mm": -9.826766014099121}}, {"type": "Feature", "geometry": {"type": "Point", "coordinates": [83.31615905630942, 17.715306692213776]}, "properties": {"row": 29, "col": 5, "velocity_mm_yr": -0.6178510189056396, "velocity_std_mm_yr": 0.2357192039489746, "temporal_coherence": 0.9391499757766724, "cumulative_disp_mm": -7.1628570556640625}}, {"type": "Feature", "geometry": {"type": "Point", "coordinates": [83.31691293120933, 17.715297798362]}, "properties": {"row": 29, "col": 6, "velocity_mm_yr": -2.4302189350128174, "velocity_std_mm_yr": 0.24362970888614655, "temporal_coherence": 0.9397746920585632, "cumulative_disp_mm": -11.968493461608887}}, {"type": "Feature", "geometry": {"type": "Point", "coordinates": [83.31766680566851, 17.71528890162175]}, "properties": {"row": 29, "col": 7, "velocity_mm_yr": -0.17226897180080414, "velocity_std_mm_yr": 0.27012622356414795, "temporal_coherence": 0.9257069826126099, "cumulative_disp_mm": -3.252838134765625}}, {"type": "Feature", "geometry": {"type": "Point", "coordinates": [83.31842067968684, 17.715280001993023]}, "properties": {"row": 29, "col": 8, "velocity_mm_yr": 0.6982827186584473, "velocity_std_mm_yr": 0.2355843484401703, "temporal_coherence": 0.900238573551178, "cumulative_disp_mm": -2.1903951168060303}}, {"type": "Feature", "geometry": {"type": "Point", "coordinates": [83.31917455326415, 17.715271099475846]}, "properties": {"row": 29, "col": 9, "velocity_mm_yr": 1.662232518196106, "velocity_std_mm_yr": 0.2272530049085617, "temporal_coherence": 0.9009459614753723, "cumulative_disp_mm": 1.4081616401672363}}, {"type": "Feature", "geometry": {"type": "Point", "coordinates": [83.31992842640032, 17.715262194070213]}, "properties": {"row": 29, "col": 10, "velocity_mm_yr": -5.7804765701293945, "velocity_std_mm_yr": 0.27906665205955505, "temporal_coherence": 0.8997384905815125, "cumulative_disp_mm": -14.768270492553711}}, {"type": "Feature", "geometry": {"type": "Point", "coordinates": [83.32068229909521, 17.71525328577613]}, "properties": {"row": 29, "col": 11, "velocity_mm_yr": -5.9775166511535645, "velocity_std_mm_yr": 0.3199060559272766, "temporal_coherence": 0.8736929297447205, "cumulative_disp_mm": -17.31645965576172}}, {"type": "Feature", "geometry": {"type": "Point", "coordinates": [83.32143617134865, 17.715244374593613]}, "properties": {"row": 29, "col": 12, "velocity_mm_yr": -2.8996548652648926, "velocity_std_mm_yr": 0.28025227785110474, "temporal_coherence": 0.8525992035865784, "cumulative_disp_mm": -10.632479667663574}}, {"type": "Feature", "geometry": {"type": "Point", "coordinates": [83.32219004316052, 17.715235460522663]}, "properties": {"row": 29, "col": 13, "velocity_mm_yr": -1.366108775138855, "velocity_std_mm_yr": 0.3053053915500641, "temporal_coherence": 0.7928162217140198, "cumulative_disp_mm": -4.086416721343994}}, {"type": "Feature", "geometry": {"type": "Point", "coordinates": [83.32294391453068, 17.71522654356329]}, "properties": {"row": 29, "col": 14, "velocity_mm_yr": 5.301661968231201, "velocity_std_mm_yr": 0.4381284713745117, "temporal_coherence": 0.8432513475418091, "cumulative_disp_mm": 9.288667678833008}}, {"type": "Feature", "geometry": {"type": "Point", "coordinates": [83.32369778545896, 17.715217623715503]}, "properties": {"row": 29, "col": 15, "velocity_mm_yr": 2.941469669342041, "velocity_std_mm_yr": 0.3130900263786316, "temporal_coherence": 0.8665978312492371, "cumulative_disp_mm": 3.173341751098633}}, {"type": "Feature", "geometry": {"type": "Point", "coordinates": [83.31238041215782, 17.714628597968137]}, "properties": {"row": 30, "col": 0, "velocity_mm_yr": 0.5573400259017944, "velocity_std_mm_yr": 0.23156073689460754, "temporal_coherence": 0.9455065727233887, "cumulative_disp_mm": -2.723517417907715}}, {"type": "Feature", "geometry": {"type": "Point", "coordinates": [83.31313428624583, 17.714619718944274]}, "properties": {"row": 30, "col": 1, "velocity_mm_yr": 0.533885657787323, "velocity_std_mm_yr": 0.23502282798290253, "temporal_coherence": 0.9406449198722839, "cumulative_disp_mm": -2.5603580474853516}}, {"type": "Feature", "geometry": {"type": "Point", "coordinates": [83.31388815989385, 17.71461083703203]}, "properties": {"row": 30, "col": 2, "velocity_mm_yr": 3.0482800006866455, "velocity_std_mm_yr": 0.20431408286094666, "temporal_coherence": 0.949624240398407, "cumulative_disp_mm": 5.50963020324707}}, {"type": "Feature", "geometry": {"type": "Point", "coordinates": [83.31464203310173, 17.7146019522314]}, "properties": {"row": 30, "col": 3, "velocity_mm_yr": -1.0829998254776, "velocity_std_mm_yr": 0.23807299137115479, "temporal_coherence": 0.9404834508895874, "cumulative_disp_mm": -4.339901447296143}}, {"type": "Feature", "geometry": {"type": "Point", "coordinates": [83.31539590586932, 17.714593064542402]}, "properties": {"row": 30, "col": 4, "velocity_mm_yr": -2.288118600845337, "velocity_std_mm_yr": 0.22933027148246765, "temporal_coherence": 0.9329941272735596, "cumulative_disp_mm": -10.23223876953125}}, {"type": "Feature", "geometry": {"type": "Point", "coordinates": [83.31614977819649, 17.71458417396504]}, "properties": {"row": 30, "col": 5, "velocity_mm_yr": -2.83418607711792, "velocity_std_mm_yr": 0.21837161481380463, "temporal_coherence": 0.9366466999053955, "cumulative_disp_mm": -10.591063499450684}}, {"type": "Feature", "geometry": {"type": "Point", "coordinates": [83.31690365008309, 17.71457528049932]}, "properties": {"row": 30, "col": 6, "velocity_mm_yr": -2.882030963897705, "velocity_std_mm_yr": 0.21013601124286652, "temporal_coherence": 0.9178182482719421, "cumulative_disp_mm": -9.26358699798584}}, {"type": "Feature", "geometry": {"type": "Point", "coordinates": [83.31765752152897, 17.714566384145247]}, "properties": {"row": 30, "col": 7, "velocity_mm_yr": 0.8361843824386597, "velocity_std_mm_yr": 0.22703079879283905, "temporal_coherence": 0.9224562048912048, "cumulative_disp_mm": 1.2956008911132812}}, {"type": "Feature", "geometry": {"type": "Point", "coordinates": [83.31841139253402, 17.714557484902837]}, "properties": {"row": 30, "col": 8, "velocity_mm_yr": 0.8522778153419495, "velocity_std_mm_yr": 0.2237972617149353, "temporal_coherence": 0.9164383411407471, "cumulative_disp_mm": 0.29562437534332275}}, {"type": "Feature", "geometry": {"type": "Point", "coordinates": [83.31916526309807, 17.714548582772085]}, "properties": {"row": 30, "col": 9, "velocity_mm_yr": 1.8278590440750122, "velocity_std_mm_yr": 0.27275368571281433, "temporal_coherence": 0.8952162265777588, "cumulative_disp_mm": 3.009995222091675}}, {"type": "Feature", "geometry": {"type": "Point", "coordinates": [83.31991913322098, 17.714539677753006]}, "properties": {"row": 30, "col": 10, "velocity_mm_yr": -1.615513563156128, "velocity_std_mm_yr": 0.27057984471321106, "temporal_coherence": 0.9343487620353699, "cumulative_disp_mm": -12.074274063110352}}, {"type": "Feature", "geometry": {"type": "Point", "coordinates": [83.3206730029026, 17.71453076984561]}, "properties": {"row": 30, "col": 11, "velocity_mm_yr": -1.533329725265503, "velocity_std_mm_yr": 0.4040583670139313, "temporal_coherence": 0.8814679980278015, "cumulative_disp_mm": -8.96403694152832}}, {"type": "Feature", "geometry": {"type": "Point", "coordinates": [83.32142687214278, 17.714521859049896]}, "properties": {"row": 30, "col": 12, "velocity_mm_yr": -1.4122166633605957, "velocity_std_mm_yr": 0.35544532537460327, "temporal_coherence": 0.8984104990959167, "cumulative_disp_mm": -6.920193195343018}}, {"type": "Feature", "geometry": {"type": "Point", "coordinates": [83.3221807409414, 17.714512945365883]}, "properties": {"row": 30, "col": 13, "velocity_mm_yr": -0.9205094575881958, "velocity_std_mm_yr": 0.2650914490222931, "temporal_coherence": 0.9028496742248535, "cumulative_disp_mm": -1.9208170175552368}}, {"type": "Feature", "geometry": {"type": "Point", "coordinates": [83.32293460929833, 17.71450402879357]}, "properties": {"row": 30, "col": 14, "velocity_mm_yr": -1.2857484817504883, "velocity_std_mm_yr": 0.431260347366333, "temporal_coherence": 0.8645145297050476, "cumulative_disp_mm": -6.797154426574707}}, {"type": "Feature", "geometry": {"type": "Point", "coordinates": [83.31237114955137, 17.713906077733238]}, "properties": {"row": 31, "col": 0, "velocity_mm_yr": 0.4047095775604248, "velocity_std_mm_yr": 0.19219999015331268, "temporal_coherence": 0.9373959302902222, "cumulative_disp_mm": -2.1997458934783936}}, {"type": "Feature", "geometry": {"type": "Point", "coordinates": [83.31312502062617, 17.71389719909481]}, "properties": {"row": 31, "col": 1, "velocity_mm_yr": 1.2559666633605957, "velocity_std_mm_yr": 0.24388132989406586, "temporal_coherence": 0.9304525852203369, "cumulative_disp_mm": -0.7582069039344788}}, {"type": "Feature", "geometry": {"type": "Point", "coordinates": [83.313878891261, 17.713888317568113]}, "properties": {"row": 31, "col": 2, "velocity_mm_yr": 1.1526154279708862, "velocity_std_mm_yr": 0.21104556322097778, "temporal_coherence": 0.9412992000579834, "cumulative_disp_mm": -0.00018334388732910156}}, {"type": "Feature", "geometry": {"type": "Point", "coordinates": [83.3146327614557, 17.71387943315316]}, "properties": {"row": 31, "col": 3, "velocity_mm_yr": 2.0893402099609375, "velocity_std_mm_yr": 0.1907501071691513, "temporal_coherence": 0.9369587302207947, "cumulative_disp_mm": 2.445192813873291}}, {"type": "Feature", "geometry": {"type": "Point", "coordinates": [83.31538663121012, 17.713870545849964]}, "properties": {"row": 31, "col": 4, "velocity_mm_yr": -0.0873820036649704, "velocity_std_mm_yr": 0.19136914610862732, "temporal_coherence": 0.9507495760917664, "cumulative_disp_mm": -4.432642459869385}}, {"type": "Feature", "geometry": {"type": "Point", "coordinates": [83.31614050052411, 17.71386165565853]}, "properties": {"row": 31, "col": 5, "velocity_mm_yr": -1.4546833038330078, "velocity_std_mm_yr": 0.1962742656469345, "temporal_coherence": 0.9527599811553955, "cumulative_disp_mm": -6.723938941955566}}, {"type": "Feature", "geometry": {"type": "Point", "coordinates": [83.31689436939756, 17.71385276257886]}, "properties": {"row": 31, "col": 6, "velocity_mm_yr": -1.397353172302246, "velocity_std_mm_yr": 0.17772060632705688, "temporal_coherence": 0.9283030033111572, "cumulative_disp_mm": -4.4721832275390625}}, {"type": "Feature", "geometry": {"type": "Point", "coordinates": [83.31764823783031, 17.713843866610965]}, "properties": {"row": 31, "col": 7, "velocity_mm_yr": -0.6819916367530823, "velocity_std_mm_yr": 0.23625844717025757, "temporal_coherence": 0.9233046174049377, "cumulative_disp_mm": -2.0704989433288574}}, {"type": "Feature", "geometry": {"type": "Point", "coordinates": [83.3184021058222, 17.713834967754856]}, "properties": {"row": 31, "col": 8, "velocity_mm_yr": 1.0377432107925415, "velocity_std_mm_yr": 0.21191354095935822, "temporal_coherence": 0.9239832162857056, "cumulative_disp_mm": 1.6046299934387207}}, {"type": "Feature", "geometry": {"type": "Point", "coordinates": [83.31915597337313, 17.71382606601054]}, "properties": {"row": 31, "col": 9, "velocity_mm_yr": 1.2073572874069214, "velocity_std_mm_yr": 0.22578640282154083, "temporal_coherence": 0.9153884649276733, "cumulative_disp_mm": 1.235474944114685}}, {"type": "Feature", "geometry": {"type": "Point", "coordinates": [83.31990984048291, 17.713817161378014]}, "properties": {"row": 31, "col": 10, "velocity_mm_yr": -1.5329784154891968, "velocity_std_mm_yr": 0.25985288619995117, "temporal_coherence": 0.9326574802398682, "cumulative_disp_mm": -8.952873229980469}}, {"type": "Feature", "geometry": {"type": "Point", "coordinates": [83.32066370715141, 17.7138082538573]}, "properties": {"row": 31, "col": 11, "velocity_mm_yr": -2.2825236320495605, "velocity_std_mm_yr": 0.2693408131599426, "temporal_coherence": 0.9220770597457886, "cumulative_disp_mm": -8.867240905761719}}, {"type": "Feature", "geometry": {"type": "Point", "coordinates": [83.3214175733785, 17.71379934344839]}, "properties": {"row": 31, "col": 12, "velocity_mm_yr": -4.041007995605469, "velocity_std_mm_yr": 0.29571065306663513, "temporal_coherence": 0.8967377543449402, "cumulative_disp_mm": -12.72709846496582}}, {"type": "Feature", "geometry": {"type": "Point", "coordinates": [83.32217143916402, 17.713790430151303]}, "properties": {"row": 31, "col": 13, "velocity_mm_yr": -0.9952942132949829, "velocity_std_mm_yr": 0.5072101950645447, "temporal_coherence": 0.9055289626121521, "cumulative_disp_mm": 1.3989619016647339}}, {"type": "Feature", "geometry": {"type": "Point", "coordinates": [83.31236188738477, 17.71318355744059]}, "properties": {"row": 32, "col": 0, "velocity_mm_yr": -0.2776332497596741, "velocity_std_mm_yr": 0.21120280027389526, "temporal_coherence": 0.9363173842430115, "cumulative_disp_mm": -3.334221363067627}}, {"type": "Feature", "geometry": {"type": "Point", "coordinates": [83.31311575544652, 17.71317467918758]}, "properties": {"row": 32, "col": 1, "velocity_mm_yr": 1.8433537483215332, "velocity_std_mm_yr": 0.1907535046339035, "temporal_coherence": 0.9328921437263489, "cumulative_disp_mm": 3.295309066772461}}, {"type": "Feature", "geometry": {"type": "Point", "coordinates": [83.31386962306829, 17.71316579804643]}, "properties": {"row": 32, "col": 2, "velocity_mm_yr": -1.653712511062622, "velocity_std_mm_yr": 0.1721172332763672, "temporal_coherence": 0.923014760017395, "cumulative_disp_mm": -6.903502464294434}}, {"type": "Feature", "geometry": {"type": "Point", "coordinates": [83.31462349024994, 17.713156914017155]}, "properties": {"row": 32, "col": 3, "velocity_mm_yr": -0.7001171112060547, "velocity_std_mm_yr": 0.17186222970485687, "temporal_coherence": 0.9394491314888, "cumulative_disp_mm": -3.1895508766174316}}, {"type": "Feature", "geometry": {"type": "Point", "coordinates": [83.31537735699133, 17.71314802709976]}, "properties": {"row": 32, "col": 4, "velocity_mm_yr": 0.516424298286438, "velocity_std_mm_yr": 0.17067363858222961, "temporal_coherence": 0.955804169178009, "cumulative_disp_mm": 0.5876634120941162}}, {"type": "Feature", "geometry": {"type": "Point", "coordinates": [83.31613122329232, 17.713139137294245]}, "properties": {"row": 32, "col": 5, "velocity_mm_yr": 0.2700232267379761, "velocity_std_mm_yr": 0.16480576992034912, "temporal_coherence": 0.9414824843406677, "cumulative_disp_mm": -0.749730110168457}}, {"type": "Feature", "geometry": {"type": "Point", "coordinates": [83.31688508915275, 17.71313024460063]}, "properties": {"row": 32, "col": 6, "velocity_mm_yr": 1.8632488250732422, "velocity_std_mm_yr": 0.15772664546966553, "temporal_coherence": 0.9480260014533997, "cumulative_disp_mm": 4.668261528015137}}, {"type": "Feature", "geometry": {"type": "Point", "coordinates": [83.31763895457249, 17.713121349018913]}, "properties": {"row": 32, "col": 7, "velocity_mm_yr": 2.939096450805664, "velocity_std_mm_yr": 0.17939026653766632, "temporal_coherence": 0.9436637759208679, "cumulative_disp_mm": 7.022631645202637}}, {"type": "Feature", "geometry": {"type": "Point", "coordinates": [83.31839281955139, 17.713112450549097]}, "properties": {"row": 32, "col": 8, "velocity_mm_yr": 3.192253828048706, "velocity_std_mm_yr": 0.1959252506494522, "temporal_coherence": 0.9450759291648865, "cumulative_disp_mm": 8.093868255615234}}, {"type": "Feature", "geometry": {"type": "Point", "coordinates": [83.3191466840893, 17.713103549191207]}, "properties": {"row": 32, "col": 9, "velocity_mm_yr": 0.8855507969856262, "velocity_std_mm_yr": 0.2826845347881317, "temporal_coherence": 0.9313247799873352, "cumulative_disp_mm": -2.5567941665649414}}, {"type": "Feature", "geometry": {"type": "Point", "coordinates": [83.3199005481861, 17.713094644945233]}, "properties": {"row": 32, "col": 10, "velocity_mm_yr": -4.177906036376953, "velocity_std_mm_yr": 0.208978533744812, "temporal_coherence": 0.947786271572113, "cumulative_disp_mm": -14.680953025817871}}, {"type": "Feature", "geometry": {"type": "Point", "coordinates": [83.32065441184164, 17.713085737811188]}, "properties": {"row": 32, "col": 11, "velocity_mm_yr": -2.4791057109832764, "velocity_std_mm_yr": 0.22554706037044525, "temporal_coherence": 0.9300824403762817, "cumulative_disp_mm": -8.216418266296387}}, {"type": "Feature", "geometry": {"type": "Point", "coordinates": [83.31235262565798, 17.71246103709018]}, "properties": {"row": 33, "col": 0, "velocity_mm_yr": 0.9460600018501282, "velocity_std_mm_yr": 0.1892971396446228, "temporal_coherence": 0.9265245199203491, "cumulative_disp_mm": 3.6320905685424805}}, {"type": "Feature", "geometry": {"type": "Point", "coordinates": [83.31310649070683, 17.712452159222593]}, "properties": {"row": 33, "col": 1, "velocity_mm_yr": 1.8097264766693115, "velocity_std_mm_yr": 0.145196795463562, "temporal_coherence": 0.9277627468109131, "cumulative_disp_mm": 4.5750932693481445}}, {"type": "Feature", "geometry": {"type": "Point", "coordinates": [83.3138603553157, 17.712443278466985]}, "properties": {"row": 33, "col": 2, "velocity_mm_yr": 0.9776345491409302, "velocity_std_mm_yr": 0.13846449553966522, "temporal_coherence": 0.9512200951576233, "cumulative_disp_mm": 0.34908080101013184}}, {"type": "Feature", "geometry": {"type": "Point", "coordinates": [83.31461421948445, 17.71243439482338]}, "properties": {"row": 33, "col": 3, "velocity_mm_yr": -0.3236875832080841, "velocity_std_mm_yr": 0.15797685086727142, "temporal_coherence": 0.9482495188713074, "cumulative_disp_mm": -1.2443691492080688}}, {"type": "Feature", "geometry": {"type": "Point", "coordinates": [83.31536808321296, 17.712425508291783]}, "properties": {"row": 33, "col": 4, "velocity_mm_yr": -0.062192078679800034, "velocity_std_mm_yr": 0.14136488735675812, "temporal_coherence": 0.9379324913024902, "cumulative_disp_mm": -2.022099733352661}}, {"type": "Feature", "geometry": {"type": "Point", "coordinates": [83.31612194650107, 17.71241661887219]}, "properties": {"row": 33, "col": 5, "velocity_mm_yr": 0.7470417618751526, "velocity_std_mm_yr": 0.1903391033411026, "temporal_coherence": 0.9448016881942749, "cumulative_disp_mm": 1.0513789653778076}}, {"type": "Feature", "geometry": {"type": "Point", "coordinates": [83.31687580934862, 17.71240772656462]}, "properties": {"row": 33, "col": 6, "velocity_mm_yr": 0.16409920156002045, "velocity_std_mm_yr": 0.15801532566547394, "temporal_coherence": 0.9268841743469238, "cumulative_disp_mm": 0.11800962686538696}}, {"type": "Feature", "geometry": {"type": "Point", "coordinates": [83.3176296717555, 17.71239883136907]}, "properties": {"row": 33, "col": 7, "velocity_mm_yr": 0.801631510257721, "velocity_std_mm_yr": 0.17098745703697205, "temporal_coherence": 0.9332095980644226, "cumulative_disp_mm": 2.771043300628662}}, {"type": "Feature", "geometry": {"type": "Point", "coordinates": [83.31838353372154, 17.71238993328556]}, "properties": {"row": 33, "col": 8, "velocity_mm_yr": -2.223593235015869, "velocity_std_mm_yr": 0.20348922908306122, "temporal_coherence": 0.9196212887763977, "cumulative_disp_mm": -4.236278533935547}}, {"type": "Feature", "geometry": {"type": "Point", "coordinates": [83.31913739524661, 17.712381032314088]}, "properties": {"row": 33, "col": 9, "velocity_mm_yr": 2.216256618499756, "velocity_std_mm_yr": 0.2185547798871994, "temporal_coherence": 0.9462922215461731, "cumulative_disp_mm": 3.0727033615112305}}, {"type": "Feature", "geometry": {"type": "Point", "coordinates": [83.31989125633058, 17.71237212845466]}, "properties": {"row": 33, "col": 10, "velocity_mm_yr": -1.3268646001815796, "velocity_std_mm_yr": 0.22895148396492004, "temporal_coherence": 0.9627814292907715, "cumulative_disp_mm": -3.3946709632873535}}, {"type": "Feature", "geometry": {"type": "Point", "coordinates": [83.31234336437103, 17.71173851668201]}, "properties": {"row": 34, "col": 0, "velocity_mm_yr": -0.17924746870994568, "velocity_std_mm_yr": 0.24562236666679382, "temporal_coherence": 0.938970148563385, "cumulative_disp_mm": -0.09054422378540039}}, {"type": "Feature", "geometry": {"type": "Point", "coordinates": [83.3130972264071, 17.71172963919984]}, "properties": {"row": 34, "col": 1, "velocity_mm_yr": -0.5341354608535767, "velocity_std_mm_yr": 0.13866190612316132, "temporal_coherence": 0.9385690689086914, "cumulative_disp_mm": -2.1729602813720703}}, {"type": "Feature", "geometry": {"type": "Point", "coordinates": [83.31385108800322, 17.711720758829784]}, "properties": {"row": 34, "col": 2, "velocity_mm_yr": -0.7931333780288696, "velocity_std_mm_yr": 0.14984391629695892, "temporal_coherence": 0.944451630115509, "cumulative_disp_mm": -1.3369091749191284}}, {"type": "Feature", "geometry": {"type": "Point", "coordinates": [83.31460494915923, 17.711711875571847]}, "properties": {"row": 34, "col": 3, "velocity_mm_yr": 0.3502359986305237, "velocity_std_mm_yr": 0.1470312923192978, "temporal_coherence": 0.9373910427093506, "cumulative_disp_mm": 1.1306250095367432}}, {"type": "Feature", "geometry": {"type": "Point", "coordinates": [83.31535880987498, 17.711702989426037]}, "properties": {"row": 34, "col": 4, "velocity_mm_yr": -1.0010852813720703, "velocity_std_mm_yr": 0.19192160665988922, "temporal_coherence": 0.935397744178772, "cumulative_disp_mm": -3.4574639797210693}}, {"type": "Feature", "geometry": {"type": "Point", "coordinates": [83.31611267015036, 17.711694100392364]}, "properties": {"row": 34, "col": 5, "velocity_mm_yr": -0.16854706406593323, "velocity_std_mm_yr": 0.2937036156654358, "temporal_coherence": 0.9314000010490417, "cumulative_disp_mm": -3.1613097190856934}}, {"type": "Feature", "geometry": {"type": "Point", "coordinates": [83.31686652998519, 17.71168520847084]}, "properties": {"row": 34, "col": 6, "velocity_mm_yr": 1.0775924921035767, "velocity_std_mm_yr": 0.19732877612113953, "temporal_coherence": 0.9423872828483582, "cumulative_disp_mm": 2.4794225692749023}}, {"type": "Feature", "geometry": {"type": "Point", "coordinates": [83.31762038937933, 17.711676313661464]}, "properties": {"row": 34, "col": 7, "velocity_mm_yr": -0.09591018408536911, "velocity_std_mm_yr": 0.22014516592025757, "temporal_coherence": 0.9334424734115601, "cumulative_disp_mm": -0.4578857421875}}, {"type": "Feature", "geometry": {"type": "Point", "coordinates": [83.31837424833266, 17.711667415964243]}, "properties": {"row": 34, "col": 8, "velocity_mm_yr": 0.9790926575660706, "velocity_std_mm_yr": 0.21360599994659424, "temporal_coherence": 0.9608876705169678, "cumulative_disp_mm": 3.1153948307037354}}, {"type": "Feature", "geometry": {"type": "Point", "coordinates": [83.31912810684504, 17.711658515379185]}, "properties": {"row": 34, "col": 9, "velocity_mm_yr": -4.6666765213012695, "velocity_std_mm_yr": 0.20654787123203278, "temporal_coherence": 0.964105486869812, "cumulative_disp_mm": -12.781078338623047}}, {"type": "Feature", "geometry": {"type": "Point", "coordinates": [83.3123341035239, 17.7110159962161]}, "properties": {"row": 35, "col": 0, "velocity_mm_yr": -1.7028262615203857, "velocity_std_mm_yr": 0.16324356198310852, "temporal_coherence": 0.9508289694786072, "cumulative_disp_mm": -4.596591472625732}}, {"type": "Feature", "geometry": {"type": "Point", "coordinates": [83.31308796254734, 17.71100711911934]}, "properties": {"row": 35, "col": 1, "velocity_mm_yr": -1.0536686182022095, "velocity_std_mm_yr": 0.14637206494808197, "temporal_coherence": 0.9537687301635742, "cumulative_disp_mm": -3.3660807609558105}}, {"type": "Feature", "geometry": {"type": "Point", "coordinates": [83.31384182113084, 17.71099823913482]}, "properties": {"row": 35, "col": 2, "velocity_mm_yr": -2.4985952377319336, "velocity_std_mm_yr": 0.1381606012582779, "temporal_coherence": 0.9504051208496094, "cumulative_disp_mm": -5.724383354187012}}, {"type": "Feature", "geometry": {"type": "Point", "coordinates": [83.31459567927425, 17.710989356262548]}, "properties": {"row": 35, "col": 3, "velocity_mm_yr": -3.285789966583252, "velocity_std_mm_yr": 0.16116681694984436, "temporal_coherence": 0.9323692917823792, "cumulative_disp_mm": -8.00954532623291}}, {"type": "Feature", "geometry": {"type": "Point", "coordinates": [83.3153495369774, 17.71098047050253]}, "properties": {"row": 35, "col": 4, "velocity_mm_yr": -0.16447776556015015, "velocity_std_mm_yr": 0.16051875054836273, "temporal_coherence": 0.9432195425033569, "cumulative_disp_mm": -0.060747504234313965}}, {"type": "Feature", "geometry": {"type": "Point", "coordinates": [83.31610339424016, 17.710971581854775]}, "properties": {"row": 35, "col": 5, "velocity_mm_yr": 0.31455087661743164, "velocity_std_mm_yr": 0.29845166206359863, "temporal_coherence": 0.9520372748374939, "cumulative_disp_mm": 0.39565491676330566}}, {"type": "Feature", "geometry": {"type": "Point", "coordinates": [83.31685725106242, 17.710962690319285]}, "properties": {"row": 35, "col": 6, "velocity_mm_yr": 1.6124833822250366, "velocity_std_mm_yr": 0.33719760179519653, "temporal_coherence": 0.9409148097038269, "cumulative_disp_mm": -0.7788329124450684}}, {"type": "Feature", "geometry": {"type": "Point", "coordinates": [83.31232484311658, 17.71029347569244]}, "properties": {"row": 36, "col": 0, "velocity_mm_yr": 0.04495500773191452, "velocity_std_mm_yr": 0.2129441201686859, "temporal_coherence": 0.9563317894935608, "cumulative_disp_mm": 0.061577796936035156}}, {"type": "Feature", "geometry": {"type": "Point", "coordinates": [83.31307869912754, 17.71028459898109]}, "properties": {"row": 36, "col": 1, "velocity_mm_yr": -2.3657660484313965, "velocity_std_mm_yr": 0.15952527523040771, "temporal_coherence": 0.945360541343689, "cumulative_disp_mm": -5.576448440551758}}, {"type": "Feature", "geometry": {"type": "Point", "coordinates": [83.31383255469856, 17.710275719382107]}, "properties": {"row": 36, "col": 2, "velocity_mm_yr": 0.15124160051345825, "velocity_std_mm_yr": 0.13829971849918365, "temporal_coherence": 0.9500637650489807, "cumulative_disp_mm": 1.580575942993164}}, {"type": "Feature", "geometry": {"type": "Point", "coordinates": [83.3145864098295, 17.710266836895496]}, "properties": {"row": 36, "col": 3, "velocity_mm_yr": 1.078121304512024, "velocity_std_mm_yr": 0.13710878789424896, "temporal_coherence": 0.9578937888145447, "cumulative_disp_mm": 1.782148003578186}}, {"type": "Feature", "geometry": {"type": "Point", "coordinates": [83.3153402645202, 17.71025795152126]}, "properties": {"row": 36, "col": 4, "velocity_mm_yr": -0.9816340208053589, "velocity_std_mm_yr": 0.23556871712207794, "temporal_coherence": 0.9546715617179871, "cumulative_disp_mm": 0.28342461585998535}}, {"type": "Feature", "geometry": {"type": "Point", "coordinates": [83.31609411877052, 17.71024906325942]}, "properties": {"row": 36, "col": 5, "velocity_mm_yr": 0.47414305806159973, "velocity_std_mm_yr": 0.2274417132139206, "temporal_coherence": 0.9455458521842957, "cumulative_disp_mm": 4.762269020080566}}, {"type": "Feature", "geometry": {"type": "Point", "coordinates": [83.3130694361477, 17.709562078785087]}, "properties": {"row": 37, "col": 1, "velocity_mm_yr": -1.1788134574890137, "velocity_std_mm_yr": 0.09464891254901886, "temporal_coherence": 0.9638504385948181, "cumulative_disp_mm": -2.0270347595214844}}, {"type": "Feature", "geometry": {"type": "Point", "coordinates": [83.31382328870639, 17.709553199571634]}, "properties": {"row": 37, "col": 2, "velocity_mm_yr": 0.3171146512031555, "velocity_std_mm_yr": 0.09618768095970154, "temporal_coherence": 0.9593580365180969, "cumulative_disp_mm": 3.8670830726623535}}, {"type": "Feature", "geometry": {"type": "Point", "coordinates": [83.314577140825, 17.709544317470684]}, "properties": {"row": 37, "col": 3, "velocity_mm_yr": 0.24362924695014954, "velocity_std_mm_yr": 0.11766897141933441, "temporal_coherence": 0.9727892875671387, "cumulative_disp_mm": 2.1009042263031006}}, {"type": "Feature", "geometry": {"type": "Point", "coordinates": [83.31533099250338, 17.709535432482234]}, "properties": {"row": 37, "col": 4, "velocity_mm_yr": -0.6931306719779968, "velocity_std_mm_yr": 0.22275036573410034, "temporal_coherence": 0.969277560710907, "cumulative_disp_mm": -2.6384966373443604}}, {"type": "Feature", "geometry": {"type": "Point", "coordinates": [83.31230632362136, 17.708848434471864]}, "properties": {"row": 38, "col": 0, "velocity_mm_yr": -1.6776686906814575, "velocity_std_mm_yr": 0.13218006491661072, "temporal_coherence": 0.9432921409606934, "cumulative_disp_mm": -3.211817979812622}}, {"type": "Feature", "geometry": {"type": "Point", "coordinates": [83.31306017360778, 17.70883955853133]}, "properties": {"row": 38, "col": 1, "velocity_mm_yr": -1.910735011100769, "velocity_std_mm_yr": 0.112073615193367, "temporal_coherence": 0.9476685523986816, "cumulative_disp_mm": -3.7627077102661133}}, {"type": "Feature", "geometry": {"type": "Point", "coordinates": [83.31381402315428, 17.70883067970341]}, "properties": {"row": 38, "col": 2, "velocity_mm_yr": -0.5967434048652649, "velocity_std_mm_yr": 0.1409621685743332, "temporal_coherence": 0.9597477912902832, "cumulative_disp_mm": -1.2299060821533203}}, {"type": "Feature", "geometry": {"type": "Point", "coordinates": [83.3145678722607, 17.70882179798811]}, "properties": {"row": 38, "col": 3, "velocity_mm_yr": -0.0841759666800499, "velocity_std_mm_yr": 0.12489012628793716, "temporal_coherence": 0.9713700413703918, "cumulative_disp_mm": 0.1571229100227356}}, {"type": "Feature", "geometry": {"type": "Point", "coordinates": [83.31229706453342, 17.708125913774968]}, "properties": {"row": 39, "col": 0, "velocity_mm_yr": 0.3282383680343628, "velocity_std_mm_yr": 0.18972621858119965, "temporal_coherence": 0.8854582905769348, "cumulative_disp_mm": 3.186354160308838}}, {"type": "Feature", "geometry": {"type": "Point", "coordinates": [83.3130509115078, 17.708117038219832]}, "properties": {"row": 39, "col": 1, "velocity_mm_yr": -3.3439481258392334, "velocity_std_mm_yr": 0.18019670248031616, "temporal_coherence": 0.903748095035553, "cumulative_disp_mm": -8.069860458374023}}, {"type": "Feature", "geometry": {"type": "Point", "coordinates": [83.31380475804224, 17.708108159777442]}, "properties": {"row": 39, "col": 2, "velocity_mm_yr": -9.043770790100098, "velocity_std_mm_yr": 0.4107797145843506, "temporal_coherence": 0.9544706344604492, "cumulative_disp_mm": -17.625612258911133}}, {"type": "Feature", "geometry": {"type": "Point", "coordinates": [83.31228780588526, 17.70740339302033]}, "properties": {"row": 40, "col": 0, "velocity_mm_yr": -0.8712102770805359, "velocity_std_mm_yr": 0.26040342450141907, "temporal_coherence": 0.8769941329956055, "cumulative_disp_mm": -2.9589340686798096}}], "crs": {"type": "name", "properties": {"name": "urn:ogc:def:crs:OGC:1.3:CRS84"}}, "name": "persistent_scatterers"}